CREW DRAGON 8           
1 59097U 24042A   24074.38434998  .00014620  00000+0  26444-3 0  9992
2 59097  51.6389  65.2641 0006133   3.4383 356.6647 15.49905504443844
STARLINK-31252          
1 59083U 24041K   24075.16667824 -.01433306  00000+0 -11282-1 0  9990
2 59083  43.0007  79.2065 0001215 261.2918  79.2017 15.73506040  3558
STARLINK-31261          
1 59084U 24041L   24075.16667824 -.01438025  00000+0 -11357-1 0  9997
2 59084  43.0006  79.2011 0001066 286.3164  56.2777 15.73440925  3551
STARLINK-31290          
1 59085U 24041M   24075.16667824 -.01486099  00000+0 -11734-1 0  9991
2 59085  43.0006  79.1963 0001311 252.7601  91.7090 15.73546307  3556
STARLINK-31279          
1 59086U 24041N   24075.16667824 -.01826317  00000+0 -14449-1 0  9999
2 59086  43.0004  79.1905 0000489 225.4652 121.3035 15.73653417  3559
STARLINK-31266          
1 59087U 24041P   24075.16667824 -.01588281  00000+0 -12415-1 0  9996
2 59087  43.0005  79.1860 0001777 235.0985 113.5316 15.73485114  3550
STARLINK-31313          
1 59088U 24041Q   24075.16667824 -.01445511  00000+0 -11391-1 0  9997
2 59088  43.0004  79.1806 0001631 252.2237  98.2732 15.73501319  3502
STARLINK-31307          
1 59089U 24041R   24075.16667824 -.01433615  00000+0 -11294-1 0  9992
2 59089  43.0005  79.1755 0001233 247.1925 105.3130 15.73487010  3550
STARLINK-31316          
1 59090U 24041S   24075.16667824 -.01500991  00000+0 -11873-1 0  9999
2 59090  43.0005  79.1710 0001093 250.9416 103.5364 15.73539376  3455
STARLINK-31352          
1 59091U 24041T   24075.25001157  .00373171  00000+0  12693-2 0  9998
2 59091  43.0019  78.2466 0000756 162.5001 112.8196 15.88081484  3568
STARLINK-31310          
1 59092U 24041U   24075.16667824 -.01600659  00000+0 -12470-1 0  9997
2 59092  43.0006  79.1603 0001127 254.5816 103.8696 15.73590606  3501
STARLINK-31343          
1 59093U 24041V   24075.16667824 -.01678545  00000+0 -13197-1 0  9994
2 59093  43.0005  79.1548 0000953 286.5783  74.1386 15.73521565  3552
STARLINK-31302          
1 59094U 24041W   24075.14423680  .00100283  00000+0  41192-3 0  9997
2 59094  43.0031  78.9743 0001288 285.2634  74.8096 15.84947665  3391
STARLINK-31295          
1 59095U 24041X   24075.16667824 -.01404785  00000+0 -11062-1 0  9998
2 59095  43.0006  79.1453 0001169 237.4302 127.1131 15.73436728  3500
STARLINK-31291          
1 59096U 24041Y   24075.16667824 -.01668294  00000+0 -13048-1 0  9992
2 59096  43.0007  79.1405 0001345 239.3320 127.1173 15.73619080  3506
2024-043A               
1 59098U 24043A   24073.55291144  .00003599  00000+0  37192-3 0  9991
2 59098  97.7527 198.5451 0011343 249.7008 110.2991 14.90703486  1292
2024-043B               
1 59099U 24043B   24073.55149106  .00006747  00000+0  68754-3 0  9998
2 59099  97.7459 198.5434 0009717 250.5295 109.4874 14.90977890  1290
2024-043C               
1 59100U 24043C   24073.55084759  .00006154  00000+0  62601-3 0  9990
2 59100  97.7457 198.5440 0009267 248.2917 111.7315 14.91086754  1290
2024-043D               
1 59101U 24043D   24073.55016649  .00003607  00000+0  36851-3 0  9992
2 59101  97.7478 198.5466 0009252 244.0102 116.0163 14.91186296  1297
2024-043E               
1 59102U 24043E   24073.54840331  .00006070  00000+0  61096-3 0  9991
2 59102  97.7488 198.5495 0009134 235.9755 124.0596 14.91515946  1290
2024-043F               
1 59103U 24043F   24073.54813915  .00006005  00000+0  60395-3 0  9999
2 59103  97.7444 198.5468 0008314 236.1066 123.9363 14.91561845  1299
2024-043G               
1 59104U 24043G   24073.54763074  .00005093  00000+0  51209-3 0  9990
2 59104  97.7433 198.5471 0007941 233.7521 126.2964 14.91642505  1292
2024-043H               
1 59105U 24043H   24073.54707798  .00004863  00000+0  48807-3 0  9996
2 59105  97.7460 198.5493 0008333 229.7425 130.3066 14.91737568  1294
2024-043J               
1 59106U 24043J   24073.54655396  .00003401  00000+0  34237-3 0  9992
2 59106  97.7454 198.5498 0007933 226.5045 133.5515 14.91816525  1296
2024-043K               
1 59107U 24043K   24073.54566453  .00005494  00000+0  54705-3 0  9994
2 59107  97.7520 198.5542 0009107 221.0063 139.0472 14.91990642  1292
2024-043L               
1 59108U 24043L   24073.54456198  .00005523  00000+0  54738-3 0  9998
2 59108  97.7505 198.5548 0008625 215.8357 144.2284 14.92183777  1296
2024-043M               
1 59109U 24043M   24073.53365552  .00028247  00000+0  13949-2 0  9997
2 59109  97.4647 198.7087 0011180 247.2961 112.7092 15.17781405  1300
2024-043N               
1 59110U 24043N   24073.54352582  .00017193  00000+0  89683-3 0  9996
2 59110  97.4567 198.6895 0014479 274.4743  85.4835 15.15924751  1305
2024-043P               
1 59111U 24043P   24073.54348260  .00013569  00000+0  70884-3 0  9991
2 59111  97.4625 198.6942 0015250 270.6608  89.2877 15.15917912  1309
2024-043Q               
1 59112U 24043Q   24073.54292242  .00006756  00000+0  35462-3 0  9993
2 59112  97.4644 198.6964 0014915 267.3009  92.6517 15.15960465  1300
