OBJECT_NAME,OBJECT_ID,EPOCH,MEAN_MOTION,ECCENTRICITY,INCLINATION,RA_OF_ASC_NODE,ARG_OF_PERICENTER,MEAN_ANOMALY,EPHEMERIS_TYPE,CLASSIFICATION_TYPE,NORAD_CAT_ID,ELEMENT_SET_NO,REV_AT_EPOCH,BSTAR,MEAN_MOTION_DOT,MEAN_MOTION_DDOT
STARLINK-31252,2024-041K,2024-03-15T04:00:00.999936,15.7350604,0.0001215,43.0007,79.2065,261.2918,79.2017,0,U,59083,999,355,-0.011282,-0.01433306,0
STARLINK-31261,2024-041L,2024-03-15T04:00:00.999936,15.73440925,0.0001066,43.0006,79.2011,286.3164,56.2777,0,U,59084,999,355,-0.011357,-0.01438025,0
STARLINK-31290,2024-041M,2024-03-15T04:00:00.999936,15.73546307,0.0001311,43.0006,79.1963,252.7601,91.709,0,U,59085,999,355,-0.011734,-0.01486099,0
STARLINK-31279,2024-041N,2024-03-15T04:00:00.999936,15.73653417,4.89e-05,43.0004,79.1905,225.4652,121.3035,0,U,59086,999,355,-0.014449,-0.01826317,0
STARLINK-31266,2024-041P,2024-03-15T04:00:00.999936,15.73485114,0.0001777,43.0005,79.186,235.0985,113.5316,0,U,59087,999,355,-0.012415,-0.01588281,0
STARLINK-31313,2024-041Q,2024-03-15T04:00:00.999936,15.73501319,0.0001631,43.0004,79.1806,252.2237,98.2732,0,U,59088,999,350,-0.011391,-0.01445511,0
STARLINK-31307,2024-041R,2024-03-15T04:00:00.999936,15.7348701,0.0001233,43.0005,79.1755,247.1925,105.313,0,U,59089,999,355,-0.011294,-0.01433615,0
STARLINK-31316,2024-041S,2024-03-15T04:00:00.999936,15.73539376,0.0001093,43.0005,79.171,250.9416,103.5364,0,U,59090,999,345,-0.011873,-0.01500991,0
STARLINK-31352,2024-041T,2024-03-15T06:00:00.999648,15.88081484,7.56e-05,43.0019,78.2466,162.5001,112.8196,0,U,59091,999,356,0.0012693,0.00373171,0
STARLINK-31310,2024-041U,2024-03-15T04:00:00.999936,15.73590606,0.0001127,43.0006,79.1603,254.5816,103.8696,0,U,59092,999,350,-0.01247,-0.01600659,0
STARLINK-31343,2024-041V,2024-03-15T04:00:00.999936,15.73521565,9.53e-05,43.0005,79.1548,286.5783,74.1386,0,U,59093,999,355,-0.013197,-0.01678545,0
STARLINK-31302,2024-041W,2024-03-15T03:27:42.059520,15.84947665,0.0001288,43.0031,78.9743,285.2634,74.8096,0,U,59094,999,339,0.00041192,0.00100283,0
STARLINK-31295,2024-041X,2024-03-15T04:00:00.999936,15.73436728,0.0001169,43.0006,79.1453,237.4302,127.1131,0,U,59095,999,350,-0.011062,-0.01404785,0
STARLINK-31291,2024-041Y,2024-03-15T04:00:00.999936,15.7361908,0.0001345,43.0007,79.1405,239.332,127.1173,0,U,59096,999,350,-0.013048,-0.01668294,0
CREW DRAGON 8,2024-042A,2024-03-14T09:13:27.838272,15.49905504,0.0006133,51.6389,65.2641,3.4383,356.6647,0,U,59097,999,44384,0.00026444,0.0001462,0
2024-043A,2024-043A,2024-03-13T13:16:11.548416,14.90703486,0.0011343,97.7527,198.5451,249.7008,110.2991,0,U,59098,999,129,0.00037192,3.599e-05,0
2024-043B,2024-043B,2024-03-13T13:14:08.827584,14.9097789,0.0009717,97.7459,198.5434,250.5295,109.4874,0,U,59099,999,129,0.00068754,6.747e-05,0
2024-043C,2024-043C,2024-03-13T13:13:13.231776,14.91086754,0.0009267,97.7457,198.544,248.2917,111.7315,0,U,59100,999,129,0.00062601,6.154e-05,0
2024-043D,2024-043D,2024-03-13T13:12:14.384736,14.91186296,0.0009252,97.7478,198.5466,244.0102,116.0163,0,U,59101,999,129,0.00036851,3.607e-05,0
2024-043E,2024-043E,2024-03-13T13:09:42.045984,14.91515946,0.0009134,97.7488,198.5495,235.9755,124.0596,0,U,59102,999,129,0.00061096,6.07e-05,0
2024-043F,2024-043F,2024-03-13T13:09:19.222560,14.91561845,0.0008314,97.7444,198.5468,236.1066,123.9363,0,U,59103,999,129,0.00060395,6.005e-05,0
2024-043G,2024-043G,2024-03-13T13:08:35.295936,14.91642505,0.0007941,97.7433,198.5471,233.7521,126.2964,0,U,59104,999,129,0.00051209,5.093e-05,0
2024-043H,2024-043H,2024-03-13T13:07:47.537472,14.91737568,0.0008333,97.746,198.5493,229.7425,130.3066,0,U,59105,999,129,0.00048807,4.863e-05,0
2024-043J,2024-043J,2024-03-13T13:07:02.262144,14.91816525,0.0007933,97.7454,198.5498,226.5045,133.5515,0,U,59106,999,129,0.00034237,3.401e-05,0
2024-043K,2024-043K,2024-03-13T13:05:45.415392,14.91990642,0.0009107,97.752,198.5542,221.0063,139.0472,0,U,59107,999,129,0.00054705,5.494e-05,0
2024-043L,2024-043L,2024-03-13T13:04:10.155072,14.92183777,0.0008625,97.7505,198.5548,215.8357,144.2284,0,U,59108,999,129,0.00054738,5.523e-05,0
2024-043M,2024-043M,2024-03-13T12:48:27.836928,15.17781405,0.001118,97.4647,198.7087,247.2961,112.7092,0,U,59109,999,130,0.0013949,0.00028247,0
2024-043N,2024-043N,2024-03-13T13:02:40.630848,15.15924751,0.0014479,97.4567,198.6895,274.4743,85.4835,0,U,59110,999,130,0.00089683,0.00017193,0
2024-043P,2024-043P,2024-03-13T13:02:36.896640,15.15917912,0.001525,97.4625,198.6942,270.6608,89.2877,0,U,59111,999,130,0.00070884,0.00013569,0
2024-043Q,2024-043Q,2024-03-13T13:01:48.497088,15.15960465,0.0014915,97.4644,198.6964,267.3009,92.6517,0,U,59112,999,130,0.00035462,6.756e-05,0
